[{"OBJECT_NAME":"KUIPER-00090","OBJECT_ID":"2025-151V","EPOCH":"2026-03-09T21:15:17.323488","MEAN_MOTION":14.7992851,"ECCENTRICITY":6.399e-5,"INCLINATION":51.8979,"RA_OF_ASC_NODE":277.2553,"ARG_OF_PERICENTER":106.9589,"MEAN_ANOMALY":253.1443,"EPHEMERIS_TYPE":0,"CLASSIFICATION_TYPE":"U","NORAD_CAT_ID":64835,"ELEMENT_SET_NO":999,"REV_AT_EPOCH":3564,"BSTAR":9.343077e-6,"MEAN_MOTION_DOT":-1.5e-6,"MEAN_MOTION_DDOT":0},{"OBJECT_NAME":"ARIANE 42P DEB","OBJECT_ID":"1992-052P","EPOCH":"2026-03-07T16:35:12.625440","MEAN_MOTION":12.44461156,"ECCENTRICITY":0.11753912,"INCLINATION":65.8137,"RA_OF_ASC_NODE":219.9685,"ARG_OF_PERICENTER":329.2397,"MEAN_ANOMALY":24.4493,"EPHEMERIS_TYPE":0,"CLASSIFICATION_TYPE":"U","NORAD_CAT_ID":47108,"ELEMENT_SET_NO":999,"REV_AT_EPOCH":8658,"BSTAR":0.00068041583,"MEAN_MOTION_DOT":1.294e-5,"MEAN_MOTION_DDOT":0}]
